0 COSMOS 2251 DEB
1 35044U 93036AHH 13282.47641554  .00061394  00000-0  43370-2 0  6415
2 35044 074.0231 283.2959 0076110 077.9524 079.5772 15.02251313240075
0 COSMOS 2251 DEB
1 35044U 93036AHH 13283.32424916  .00056826  00000-0  40109-2 0  6423
2 35044 074.0231 281.5651 0076037 075.9994 344.8508 15.02310566240196
0 COSMOS 2251 DEB
1 35044U 93036AHH 13283.64614406  .00036486  00000-0  25870-2 0  6421
2 35044 074.0252 280.9197 0076540 075.4081 285.6080 15.02312833234872
0 COSMOS 2251 DEB
1 35044U 93036AHH 13283.66789701  .00058721  00000-0  41414-2 0  6433
2 35044 074.0231 280.8634 0075992 075.2136 043.4287 15.02332730240259
0 COSMOS 2251 DEB
1 35044U 93036AHH 13286.98123226  .00046194  00000-0  32385-2 0  6444
2 35044 074.0211 274.0978 0076134 067.1508 325.4198 15.02610637240759
0 COSMOS 2251 DEB
1 35044U 93036AHH 13287.66290744  .00068784  00000-0  48036-2 0  6450
2 35044 074.0224 272.7050 0075432 066.0809 052.4761 15.02678423240852
0 COSMOS 2251 DEB
1 35044U 93036AHH 13291.97790822  .00063026  00000-0  43436-2 0  6465
2 35044 074.0233 263.8891 0074922 056.5878 358.9995 15.03226296241503
0 COSMOS 2251 DEB
1 35044U 93036AHH 13294.24121763  .00078059  00000-0  53329-2 0  6475
2 35044 074.0233 259.2572 0074545 051.8768 007.8013 15.03494560241844
0 COSMOS 2251 DEB
1 35044U 93036AHH 13294.90171000  .00070688  00000-0  48239-2 0  6482
2 35044 074.0212 257.9050 0074443 050.4040 342.8296 15.03578505241940
